ARIANE 5 R/B            
1 28499U 04049H   25315.05033196  .00001340  00000+0  15472-3 0  9991
2 28499  98.2514 114.2011 0085052  16.4147 343.9790 14.84912306128189
CZ-2D R/B               
1 28738U 05024B   25315.00237886  .00029708  00000+0  51105-3 0  9999
2 28738  97.3667 321.6638 0008195  94.2300 265.9889 15.51026943121331
ALOS (DAICHI)           
1 28931U 06002A   25315.30355619  .00003148  00000+0  54127-3 0  9996
2 28931  98.1044 267.0243 0001128  51.2822 308.8484 14.69330262 56098
H-2A R/B                
1 28932U 06002B   25315.26215188  .00014157  00000+0  76174-3 0  9996
2 28932  98.2296  87.4667 0054733 284.0358  75.4791 15.13676390 76504
RESURS-DK 1             
1 29228U 06021A   25315.07588906  .00003374  00000+0  20271-3 0  9992
2 29228  69.9324 183.6516 0007275 285.4692  74.5670 15.11896847 69593
CZ-4B R/B               
1 29507U 06046C   25315.07927154  .00006744  00000+0  35584-3 0  9998
2 29507  97.5776 355.3046 0033317 320.3686  39.5111 15.15396906 42075
CZ-2C R/B               
1 31114U 07010B   25315.29670067  .00000286  00000+0  15113-3 0  9990
2 31114  98.3959  69.5328 0057864 278.5835  80.8789 14.20189984962919
COSMO-SKYMED 1          
1 31598U 07023A   25315.27626251  .00006742  00000+0  61517-3 0  9996
2 31598  97.8865 140.4757 0001532  86.8316 273.3080 14.95417933997196
COSMOS 2428             
1 31792U 07029A   25315.30407480 -.00000175  00000+0 -68350-4 0  9992
2 31792  70.9364  91.8763 0002069  80.9139 279.2216 14.12889060947372
SL-16 R/B               
1 31793U 07029B   25315.27390507  .00000403  00000+0  23358-3 0  9990
2 31793  70.9761  61.2974 0002143 258.4108 128.9628 14.14807607948625
KORONAS-FOTON           
1 33504U 09003A   25315.25463393  .00017842  00000+0  44271-3 0  9990
2 33504  82.4331  38.6989 0010986 217.9417 142.1056 15.40165274927491
CZ-2C R/B               
1 37731U 11030B   25315.32753959  .00003387  00000+0  43612-3 0  9994
2 37731  97.8364 270.1421 0053623  17.1987 147.0767 14.80730217772572
