CCSDS_OMM_VERS = 2.0
CREATION_DATE  = 
ORIGINATOR     = 

OBJECT_NAME    = ARIANE 5 R/B
OBJECT_ID      = 2004-049H
CENTER_NAME    = EARTH
REF_FRAME      = TEME
TIME_SYSTEM    = UTC
MEAN_ELEMENT_THEORY = SGP/SGP4

EPOCH          = 2025-11-11T01:12:28.681344
MEAN_MOTION    = 14.84912306
ECCENTRICITY   = .00850527
INCLINATION    = 98.2514
RA_OF_ASC_NODE = 114.2011
ARG_OF_PERICENTER = 16.4147
MEAN_ANOMALY   = 343.9790

EPHEMERIS_TYPE = 0
CLASSIFICATION_TYPE = U
NORAD_CAT_ID   = 28499
ELEMENT_SET_NO = 999
REV_AT_EPOCH   = 12818
BSTAR          = .15472292E-3
MEAN_MOTION_DOT = .134E-4
MEAN_MOTION_DDOT = 0

CCSDS_OMM_VERS = 2.0
CREATION_DATE  = 
ORIGINATOR     = 

OBJECT_NAME    = CZ-2D R/B
OBJECT_ID      = 2005-024B
CENTER_NAME    = EARTH
REF_FRAME      = TEME
TIME_SYSTEM    = UTC
MEAN_ELEMENT_THEORY = SGP/SGP4

EPOCH          = 2025-11-11T00:03:25.533504
MEAN_MOTION    = 15.51026943
ECCENTRICITY   = .00081953
INCLINATION    = 97.3667
RA_OF_ASC_NODE = 321.6638
ARG_OF_PERICENTER = 94.2300
MEAN_ANOMALY   = 265.9889

EPHEMERIS_TYPE = 0
CLASSIFICATION_TYPE = U
NORAD_CAT_ID   = 28738
ELEMENT_SET_NO = 999
REV_AT_EPOCH   = 12133
BSTAR          = .51105091E-3
MEAN_MOTION_DOT = .29708E-3
MEAN_MOTION_DDOT = 0

CCSDS_OMM_VERS = 2.0
CREATION_DATE  = 
ORIGINATOR     = 

OBJECT_NAME    = ALOS (DAICHI)
OBJECT_ID      = 2006-002A
CENTER_NAME    = EARTH
REF_FRAME      = TEME
TIME_SYSTEM    = UTC
MEAN_ELEMENT_THEORY = SGP/SGP4

EPOCH          = 2025-11-11T07:17:07.254816
MEAN_MOTION    = 14.69330262
ECCENTRICITY   = .00011288
INCLINATION    = 98.1044
RA_OF_ASC_NODE = 267.0243
ARG_OF_PERICENTER = 51.2822
MEAN_ANOMALY   = 308.8484

EPHEMERIS_TYPE = 0
CLASSIFICATION_TYPE = U
NORAD_CAT_ID   = 28931
ELEMENT_SET_NO = 999
REV_AT_EPOCH   = 5609
BSTAR          = .54127177E-3
MEAN_MOTION_DOT = .3148E-4
MEAN_MOTION_DDOT = 0

CCSDS_OMM_VERS = 2.0
CREATION_DATE  = 
ORIGINATOR     = 

OBJECT_NAME    = H-2A R/B
OBJECT_ID      = 2006-002B
CENTER_NAME    = EARTH
REF_FRAME      = TEME
TIME_SYSTEM    = UTC
MEAN_ELEMENT_THEORY = SGP/SGP4

EPOCH          = 2025-11-11T06:17:29.922432
MEAN_MOTION    = 15.13676390
ECCENTRICITY   = .00547337
INCLINATION    = 98.2296
RA_OF_ASC_NODE = 87.4667
ARG_OF_PERICENTER = 284.0358
MEAN_ANOMALY   = 75.4791

EPHEMERIS_TYPE = 0
CLASSIFICATION_TYPE = U
NORAD_CAT_ID   = 28932
ELEMENT_SET_NO = 999
REV_AT_EPOCH   = 7650
BSTAR          = .76173508E-3
MEAN_MOTION_DOT = .14157E-3
MEAN_MOTION_DDOT = 0

CCSDS_OMM_VERS = 2.0
CREATION_DATE  = 
ORIGINATOR     = 

OBJECT_NAME    = RESURS-DK 1
OBJECT_ID      = 2006-021A
CENTER_NAME    = EARTH
REF_FRAME      = TEME
TIME_SYSTEM    = UTC
MEAN_ELEMENT_THEORY = SGP/SGP4

EPOCH          = 2025-11-11T01:49:16.814784
MEAN_MOTION    = 15.11896847
ECCENTRICITY   = .00072758
INCLINATION    = 69.9324
RA_OF_ASC_NODE = 183.6516
ARG_OF_PERICENTER = 285.4692
MEAN_ANOMALY   = 74.5670

EPHEMERIS_TYPE = 0
CLASSIFICATION_TYPE = U
NORAD_CAT_ID   = 29228
ELEMENT_SET_NO = 999
REV_AT_EPOCH   = 6959
BSTAR          = .20271134E-3
MEAN_MOTION_DOT = .3374E-4
MEAN_MOTION_DDOT = 0

CCSDS_OMM_VERS = 2.0
CREATION_DATE  = 
ORIGINATOR     = 

OBJECT_NAME    = CZ-4B R/B
OBJECT_ID      = 2006-046C
CENTER_NAME    = EARTH
REF_FRAME      = TEME
TIME_SYSTEM    = UTC
MEAN_ELEMENT_THEORY = SGP/SGP4

EPOCH          = 2025-11-11T01:54:09.061056
MEAN_MOTION    = 15.15396906
ECCENTRICITY   = .00333173
INCLINATION    = 97.5776
RA_OF_ASC_NODE = 355.3046
ARG_OF_PERICENTER = 320.3686
MEAN_ANOMALY   = 39.5111

EPHEMERIS_TYPE = 0
CLASSIFICATION_TYPE = U
NORAD_CAT_ID   = 29507
ELEMENT_SET_NO = 999
REV_AT_EPOCH   = 4207
BSTAR          = .35583925E-3
MEAN_MOTION_DOT = .6744E-4
MEAN_MOTION_DDOT = 0

CCSDS_OMM_VERS = 2.0
CREATION_DATE  = 
ORIGINATOR     = 

OBJECT_NAME    = CZ-2C R/B
OBJECT_ID      = 2007-010B
CENTER_NAME    = EARTH
REF_FRAME      = TEME
TIME_SYSTEM    = UTC
MEAN_ELEMENT_THEORY = SGP/SGP4

EPOCH          = 2025-11-11T07:07:14.937888
MEAN_MOTION    = 14.20189984
ECCENTRICITY   = .00578644
INCLINATION    = 98.3959
RA_OF_ASC_NODE = 69.5328
ARG_OF_PERICENTER = 278.5835
MEAN_ANOMALY   = 80.8789

EPHEMERIS_TYPE = 0
CLASSIFICATION_TYPE = U
NORAD_CAT_ID   = 31114
ELEMENT_SET_NO = 999
REV_AT_EPOCH   = 96291
BSTAR          = .15113454E-3
MEAN_MOTION_DOT = .286E-5
MEAN_MOTION_DDOT = 0

CCSDS_OMM_VERS = 2.0
CREATION_DATE  = 
ORIGINATOR     = 

OBJECT_NAME    = COSMO-SKYMED 1
OBJECT_ID      = 2007-023A
CENTER_NAME    = EARTH
REF_FRAME      = TEME
TIME_SYSTEM    = UTC
MEAN_ELEMENT_THEORY = SGP/SGP4

EPOCH          = 2025-11-11T06:37:49.080864
MEAN_MOTION    = 14.95417933
ECCENTRICITY   = .00015329
INCLINATION    = 97.8865
RA_OF_ASC_NODE = 140.4757
ARG_OF_PERICENTER = 86.8316
MEAN_ANOMALY   = 273.3080

EPHEMERIS_TYPE = 0
CLASSIFICATION_TYPE = U
NORAD_CAT_ID   = 31598
ELEMENT_SET_NO = 999
REV_AT_EPOCH   = 99719
BSTAR          = .61517205E-3
MEAN_MOTION_DOT = .6742E-4
MEAN_MOTION_DDOT = 0

CCSDS_OMM_VERS = 2.0
CREATION_DATE  = 
ORIGINATOR     = 

OBJECT_NAME    = COSMOS 2428
OBJECT_ID      = 2007-029A
CENTER_NAME    = EARTH
REF_FRAME      = TEME
TIME_SYSTEM    = UTC
MEAN_ELEMENT_THEORY = SGP/SGP4

EPOCH          = 2025-11-11T07:17:52.062720
MEAN_MOTION    = 14.12889060
ECCENTRICITY   = .00020697
INCLINATION    = 70.9364
RA_OF_ASC_NODE = 91.8763
ARG_OF_PERICENTER = 80.9139
MEAN_ANOMALY   = 279.2216

EPHEMERIS_TYPE = 0
CLASSIFICATION_TYPE = U
NORAD_CAT_ID   = 31792
ELEMENT_SET_NO = 999
REV_AT_EPOCH   = 94737
BSTAR          = -.68349877E-4
MEAN_MOTION_DOT = -.175E-5
MEAN_MOTION_DDOT = 0

CCSDS_OMM_VERS = 2.0
CREATION_DATE  = 
ORIGINATOR     = 

OBJECT_NAME    = SL-16 R/B
OBJECT_ID      = 2007-029B
CENTER_NAME    = EARTH
REF_FRAME      = TEME
TIME_SYSTEM    = UTC
MEAN_ELEMENT_THEORY = SGP/SGP4

EPOCH          = 2025-11-11T06:34:25.398048
MEAN_MOTION    = 14.14807607
ECCENTRICITY   = .00021438
INCLINATION    = 70.9761
RA_OF_ASC_NODE = 61.2974
ARG_OF_PERICENTER = 258.4108
MEAN_ANOMALY   = 128.9628

EPHEMERIS_TYPE = 0
CLASSIFICATION_TYPE = U
NORAD_CAT_ID   = 31793
ELEMENT_SET_NO = 999
REV_AT_EPOCH   = 94862
BSTAR          = .23358197E-3
MEAN_MOTION_DOT = .403E-5
MEAN_MOTION_DDOT = 0

CCSDS_OMM_VERS = 2.0
CREATION_DATE  = 
ORIGINATOR     = 

OBJECT_NAME    = KORONAS-FOTON
OBJECT_ID      = 2009-003A
CENTER_NAME    = EARTH
REF_FRAME      = TEME
TIME_SYSTEM    = UTC
MEAN_ELEMENT_THEORY = SGP/SGP4

EPOCH          = 2025-11-11T06:06:40.371552
MEAN_MOTION    = 15.40165274
ECCENTRICITY   = .00109863
INCLINATION    = 82.4331
RA_OF_ASC_NODE = 38.6989
ARG_OF_PERICENTER = 217.9417
MEAN_ANOMALY   = 142.1056

EPHEMERIS_TYPE = 0
CLASSIFICATION_TYPE = U
NORAD_CAT_ID   = 33504
ELEMENT_SET_NO = 999
REV_AT_EPOCH   = 92749
BSTAR          = .44270911E-3
MEAN_MOTION_DOT = .17842E-3
MEAN_MOTION_DDOT = 0

CCSDS_OMM_VERS = 2.0
CREATION_DATE  = 
ORIGINATOR     = 

OBJECT_NAME    = CZ-2C R/B
OBJECT_ID      = 2011-030B
CENTER_NAME    = EARTH
REF_FRAME      = TEME
TIME_SYSTEM    = UTC
MEAN_ELEMENT_THEORY = SGP/SGP4

EPOCH          = 2025-11-11T07:51:39.420576
MEAN_MOTION    = 14.80730217
ECCENTRICITY   = .0053623
INCLINATION    = 97.8364
RA_OF_ASC_NODE = 270.1421
ARG_OF_PERICENTER = 17.1987
MEAN_ANOMALY   = 147.0767

EPHEMERIS_TYPE = 0
CLASSIFICATION_TYPE = U
NORAD_CAT_ID   = 37731
ELEMENT_SET_NO = 999
REV_AT_EPOCH   = 77257
BSTAR          = .4361181E-3
MEAN_MOTION_DOT = .3387E-4
MEAN_MOTION_DDOT = 0

